NORAD_CAT_ID,OBJECT_NAME,OBJECT_TYPE,EPOCH,MEAN_MOTION,ECCENTRICITY,INCLINATION,RA_OF_ASC_NODE,ARG_OF_PERICENTER,MEAN_ANOMALY,BSTAR,MEAN_MOTION_DOT,MEAN_MOTION_DDOT,TLE_LINE0,TLE_LINE1,TLE_LINE2,SEMIMAJOR_AXIS,PERIOD,APOGEE,PERIGEE,DECAYED
52486.0,STARLINK-3918,PAYLOAD,2024-05-17 17:45:33,15.08853447,0.0001378,53.2169,146.24,96.2368,263.8781,-0.00017868,-3.132e-05,0.0,0 STARLINK-3918,1 52486U 22049AM  24138.73997101 -.00003132  00000-0 -17868-3 0  9991,2 52486  53.2169 146.2400 0001378  96.2368 263.8781 15.08853447112478,6917.839,95.437,540.658,538.751,0.0
52486.0,STARLINK-3918,PAYLOAD,2024-05-18 04:53:15,15.08838305,0.0001478,53.2169,144.1593,92.3555,267.7607,1.0184e-05,-1.26e-06,0.0,0 STARLINK-3918,1 52486U 22049AM  24139.20365668 -.00000126  00000-0  10184-4 0  9995,2 52486  53.2169 144.1593 0001478  92.3555 267.7607 15.08838305112706,6917.886,95.438,540.773,538.728,0.0
52486.0,STARLINK-3918,PAYLOAD,2024-05-18 09:39:25,15.08841655,0.0001414,53.2164,143.2672,93.3065,266.8089,2.7977e-05,1.57e-06,0.0,0 STARLINK-3918,1 52486U 22049AM  24139.40237345  .00000157  00000-0  27977-4 0  9998,2 52486  53.2164 143.2672 0001414  93.3065 266.8089 15.08841655112577,6917.875,95.437,540.719,538.762,0.0
52486.0,STARLINK-3918,PAYLOAD,2024-05-18 17:36:20,15.08841862,0.0001331,53.216,141.7794,96.1912,263.9232,1.8277e-05,3e-08,0.0,0 STARLINK-3918,1 52486U 22049AM  24139.73357283  .00000003  00000-0  18277-4 0  9991,2 52486  53.2160 141.7794 0001331  96.1912 263.9232 15.08841862112625,6917.875,95.437,540.66,538.819,0.0
52486.0,STARLINK-3918,PAYLOAD,2024-05-19 06:19:25,15.08843113,0.0001377,53.2161,139.4005,94.4283,265.6866,7.1977e-05,8.58e-06,0.0,0 STARLINK-3918,1 52486U 22049AM  24140.26349046  .00000858  00000-0  71977-4 0  9993,2 52486  53.2161 139.4005 0001377  94.4283 265.6866 15.08843113112709,6917.871,95.437,540.688,538.783,0.0
52486.0,STARLINK-3918,PAYLOAD,2024-05-20 04:34:49,15.08834379,0.0001372,53.2166,135.2368,99.6527,260.462,0.00017831,2.551e-05,0.0,0 STARLINK-3918,1 52486U 22049AM  24141.19085297  .00002551  00000-0  17831-3 0  9991,2 52486  53.2166 135.2368 0001372  99.6527 260.4620 15.08834379113002,6917.898,95.438,540.712,538.813,0.0
52486.0,STARLINK-3918,PAYLOAD,2024-05-20 09:20:58,15.0884469,0.0001409,53.2168,134.3449,98.4342,261.681,9.0812e-05,1.158e-05,0.0,0 STARLINK-3918,1 52486U 22049AM  24141.38956800  .00001158  00000-0  90812-4 0  9992,2 52486  53.2168 134.3449 0001409  98.4342 261.6810 15.08844690113031,6917.866,95.437,540.706,538.756,0.0
52486.0,STARLINK-3918,PAYLOAD,2024-05-21 04:25:36,15.08846125,0.0001838,53.2178,130.775,97.5639,262.5562,-0.00017599,-3.088e-05,0.0,0 STARLINK-3918,1 52486U 22049AM  24142.18445512 -.00003088  00000-0 -17599-3 0  9990,2 52486  53.2178 130.7750 0001838  97.5639 262.5562 15.08846125113154,6917.862,95.437,540.998,538.455,0.0
52486.0,STARLINK-3918,PAYLOAD,2024-05-21 09:11:46,15.08827283,0.0001611,53.2179,129.8836,103.0888,257.0284,5.4925e-05,5.86e-06,0.0,0 STARLINK-3918,1 52486U 22049AM  24142.38318150  .00000586  00000-0  54925-4 0  9992,2 52486  53.2179 129.8836 0001611 103.0888 257.0284 15.08827283113184,6917.919,95.438,540.899,538.67,0.0
52486.0,STARLINK-3918,PAYLOAD,2024-05-22 04:16:23,15.08842496,0.0001456,53.2171,126.3174,90.7279,269.388,5.2091e-05,5.41e-06,0.0,0 STARLINK-3918,1 52486U 22049AM  24143.17805183  .00000541  00000-0  52091-4 0  9990,2 52486  53.2171 126.3174 0001456  90.7279 269.3880 15.08842496113301,6917.873,95.437,540.745,538.731,0.0
52486.0,STARLINK-3918,PAYLOAD,2024-05-22 05:51:46,15.08847028,0.0001465,53.2172,126.0205,94.4324,265.6835,5.585e-05,6.01e-06,0.0,0 STARLINK-3918,1 52486U 22049AM  24143.24428876  .00000601  00000-0  55850-4 0  9991,2 52486  53.2172 126.0205 0001465  94.4324 265.6835 15.08847028113154,6917.859,95.437,540.737,538.71,0.0
52486.0,STARLINK-3918,PAYLOAD,2024-05-23 04:07:12,15.08822994,0.0001516,53.2175,121.8572,102.2452,257.871,-2.3679e-05,-6.65e-06,0.0,0 STARLINK-3918,1 52486U 22049AM  24144.17167242 -.00000665  00000-0 -23679-4 0  9997,2 52486  53.2175 121.8572 0001516 102.2452 257.8710 15.08822994113457,6917.932,95.439,540.846,538.749,0.0
52486.0,STARLINK-3918,PAYLOAD,2024-05-23 05:42:35,15.08824432,0.0001401,53.2174,121.5607,94.4168,265.6984,-2.8343e-05,-7.39e-06,0.0,0 STARLINK-3918,1 52486U 22049AM  24144.23791263 -.00000739  00000-0 -28343-4 0  9995,2 52486  53.2174 121.5607 0001401  94.4168 265.6984 15.08824432113304,6917.928,95.439,540.762,538.824,0.0
52486.0,STARLINK-3918,PAYLOAD,2024-05-24 05:33:21,15.08851857,0.0001393,53.2167,117.0967,103.386,256.7288,9.0099e-05,1.147e-05,0.0,0 STARLINK-3918,1 52486U 22049AM  24145.23149427  .00001147  00000-0  90099-4 0  9994,2 52486  53.2167 117.0967 0001393 103.3860 256.7288 15.08851857113617,6917.844,95.437,540.673,538.745,0.0
52486.0,STARLINK-3918,PAYLOAD,2024-05-24 07:08:43,15.08854358,0.000152,53.2171,116.7983,110.5875,249.528,0.00012682,1.732e-05,0.0,0 STARLINK-3918,1 52486U 22049AM  24145.29773133  .00001732  00000-0  12682-3 0  9998,2 52486  53.2171 116.7983 0001520 110.5875 249.5280 15.08854358113468,6917.837,95.437,540.753,538.65,0.0
52486.0,STARLINK-3918,PAYLOAD,2024-05-24 21:27:13,15.08835871,0.0001466,53.2171,114.124,113.4743,246.6404,0.00015825,2.231e-05,0.0,0 STARLINK-3918,1 52486U 22049AM  24145.89390399  .00002231  00000-0  15825-3 0  9990,2 52486  53.2171 114.1240 0001466 113.4743 246.6404 15.08835871113714,6917.893,95.438,540.772,538.744,0.0
52486.0,STARLINK-3918,PAYLOAD,2024-05-25 05:24:09,15.08836869,0.0001315,53.2172,112.6375,103.4305,256.6834,0.00016321,2.31e-05,0.0,0 STARLINK-3918,1 52486U 22049AM  24146.22510523  .00002310  00000-0  16321-3 0  9991,2 52486  53.2172 112.6375 0001315 103.4305 256.6834 15.08836869113607,6917.89,95.438,540.665,538.845,0.0
52486.0,STARLINK-3918,PAYLOAD,2024-05-26 03:39:30,15.08873324,0.0001223,53.2177,108.4753,97.5543,262.5588,0.00020812,3.029e-05,0.0,0 STARLINK-3918,1 52486U 22049AM  24147.15244143  .00003029  00000-0  20812-3 0  9994,2 52486  53.2177 108.4753 0001223  97.5543 262.5588 15.08873324113902,6917.779,95.435,540.49,538.797,0.0
52486.0,STARLINK-3918,PAYLOAD,2024-05-26 05:14:53,15.0887361,0.00013,53.2177,108.1778,97.3089,262.8051,0.00019482,2.817e-05,0.0,0 STARLINK-3918,1 52486U 22049AM  24147.21868022  .00002817  00000-0  19482-3 0  9994,2 52486  53.2177 108.1778 0001300  97.3089 262.8051 15.08873610113754,6917.778,95.435,540.542,538.743,0.0
52486.0,STARLINK-3918,PAYLOAD,2024-05-26 21:08:47,15.08840511,0.0001358,53.2183,105.206,93.8747,266.2401,8.0113e-05,9.87e-06,0.0,0 STARLINK-3918,1 52486U 22049AM  24147.88110211  .00000987  00000-0  80113-4 0  9993,2 52486  53.2183 105.2060 0001358  93.8747 266.2401 15.08840511114019,6917.879,95.438,540.683,538.804,0.0
52486.0,STARLINK-3918,PAYLOAD,2024-05-27 03:30:20,15.0882925,0.0001408,53.2183,104.0166,86.5438,273.5715,-1.0277e-05,-4.51e-06,0.0,0 STARLINK-3918,1 52486U 22049AM  24148.14607278 -.00000451  00000-0 -10277-4 0  9999,2 52486  53.2183 104.0166 0001408  86.5438 273.5715 15.08829250114055,6917.913,95.438,540.752,538.804,0.0
52486.0,STARLINK-3918,PAYLOAD,2024-05-27 14:38:02,15.08835701,0.0001293,53.2186,101.935,98.7432,261.3707,3.595e-05,2.84e-06,0.0,0 STARLINK-3918,1 52486U 22049AM  24148.60974762  .00000284  00000-0  35950-4 0  9992,2 52486  53.2186 101.9350 0001293  98.7432 261.3707 15.08835701113963,6917.894,95.438,540.653,538.864,0.0
52486.0,STARLINK-3918,PAYLOAD,2024-05-27 20:59:34,15.08853153,0.0001389,53.2192,100.7447,118.559,241.5542,-0.00018756,-3.273e-05,0.0,0 STARLINK-3918,1 52486U 22049AM  24148.87470617 -.00003273  00000-0 -18756-3 0  9998,2 52486  53.2192 100.7447 0001389 118.5590 241.5542 15.08853153114167,6917.84,95.437,540.666,538.744,0.0
52486.0,STARLINK-3918,PAYLOAD,2024-05-28 03:21:06,15.08855402,0.0001213,53.2179,99.5596,85.1377,274.9753,-0.0001174,-2.157e-05,0.0,0 STARLINK-3918,1 52486U 22049AM  24149.13966143 -.00002157  00000-0 -11740-3 0  9998,2 52486  53.2179  99.5596 0001213  85.1377 274.9753 15.08855402114040,6917.833,95.437,540.537,538.859,0.0
52486.0,STARLINK-3918,PAYLOAD,2024-05-28 20:50:19,15.08859705,0.0001111,53.217,96.283,100.5683,259.5434,0.00033173,4.998e-05,0.0,0 STARLINK-3918,1 52486U 22049AM  24149.86827723  .00004998  00000-0  33173-3 0  9995,2 52486  53.2170  96.2830 0001111 100.5683 259.5434 15.08859705114310,6917.82,95.436,540.454,538.917,0.0
52486.0,STARLINK-3918,PAYLOAD,2024-05-29 03:11:54,15.0882787,0.0001258,53.218,95.0972,100.1573,259.9561,4.0596e-05,3.58e-06,0.0,0 STARLINK-3918,1 52486U 22049AM  24150.13326675  .00000358  00000-0  40596-4 0  9991,2 52486  53.2180  95.0972 0001258 100.1573 259.9561 15.08827870114358,6917.917,95.438,540.653,538.912,0.0
52486.0,STARLINK-3918,PAYLOAD,2024-05-29 06:22:40,15.08828565,0.0001252,53.2169,94.504,74.8777,285.2354,0.000111,1.479e-05,0.0,0 STARLINK-3918,1 52486U 22049AM  24150.26574213  .00001479  00000-0  11100-3 0  9991,2 52486  53.2169  94.5040 0001252  74.8777 285.2354 15.08828565114211,6917.915,95.438,540.646,538.914,0.0
52486.0,STARLINK-3918,PAYLOAD,2024-05-29 19:05:45,15.08833931,0.0001136,53.2178,92.1186,90.4075,269.7047,-0.00012201,-2.229e-05,0.0,0 STARLINK-3918,1 52486U 22049AM  24150.79567121 -.00002229  00000-0 -12201-3 0  9998,2 52486  53.2178  92.1186 0001136  90.4075 269.7047 15.08833931114299,6917.899,95.438,540.55,538.978,0.0
52486.0,STARLINK-3918,PAYLOAD,2024-05-30 03:02:40,15.08840654,0.0001296,53.2173,90.6348,90.5364,269.5776,-0.00018517,-3.234e-05,0.0,0 STARLINK-3918,1 52486U 22049AM  24151.12685981 -.00003234  00000-0 -18517-3 0  9994,2 52486  53.2173  90.6348 0001296  90.5364 269.5776 15.08840654114349,6917.878,95.438,540.64,538.847,0.0
52486.0,STARLINK-3918,PAYLOAD,2024-05-30 03:02:41,15.08841631,0.0001197,53.2182,90.6336,96.7223,263.3905,-3.0254e-05,-7.69e-06,0.0,0 STARLINK-3918,1 52486U 22049AM  24151.12686489 -.00000769  00000-0 -30254-4 0  9991,2 52486  53.2182  90.6336 0001197  96.7223 263.3905 15.08841631114508,6917.875,95.437,540.568,538.912,0.0
